NORAD_CAT_ID,OBJECT_NAME,OBJECT_TYPE,EPOCH,MEAN_MOTION,ECCENTRICITY,INCLINATION,RA_OF_ASC_NODE,ARG_OF_PERICENTER,MEAN_ANOMALY,BSTAR,MEAN_MOTION_DOT,MEAN_MOTION_DDOT,TLE_LINE0,TLE_LINE1,TLE_LINE2,SEMIMAJOR_AXIS,PERIOD,APOGEE,PERIGEE,DECAYED
52552.0,STARLINK-3966,PAYLOAD,2024-02-03 02:51:51,15.08837706,0.0001359,53.2182,325.9065,85.4758,274.6389,5.9404e-05,6.58e-06,0.0,0 STARLINK-3966,1 52552U 22051V   24034.11934264  .00000658  00000-0  59404-4 0  9997,2 52552  53.2182 325.9065 0001359  85.4758 274.6389 15.08837706 95948,6917.887,95.438,540.693,538.812,0.0
52552.0,STARLINK-3966,PAYLOAD,2024-02-04 02:42:38,15.08805099,0.000176,53.2189,321.4496,82.258,277.8612,0.00066042,0.00010228,0.0,0 STARLINK-3966,1 52552U 22051V   24035.11294545  .00010228  00000-0  66042-3 0  9998,2 52552  53.2189 321.4496 0001760  82.2580 277.8612 15.08805099 96099,6917.987,95.44,541.07,538.635,0.0
52552.0,STARLINK-3966,PAYLOAD,2024-02-04 18:36:29,15.08840679,0.0001499,53.219,318.4784,83.5137,276.6025,6.1749e-05,6.95e-06,0.0,0 STARLINK-3966,1 52552U 22051V   24035.77534196  .00000695  00000-0  61749-4 0  9996,2 52552  53.2190 318.4784 0001499  83.5137 276.6025 15.08840679 96197,6917.878,95.438,540.78,538.706,0.0
52552.0,STARLINK-3966,PAYLOAD,2024-02-05 12:05:43,15.0884501,0.0001485,53.2188,315.2051,86.8843,273.2319,6.191e-05,6.98e-06,0.0,0 STARLINK-3966,1 52552U 22051V   24036.50397805  .00000698  00000-0  61910-4 0  9995,2 52552  53.2188 315.2051 0001485  86.8843 273.2319 15.08845010 96239,6917.865,95.437,540.757,538.703,0.0
52552.0,STARLINK-3966,PAYLOAD,2024-02-05 21:38:02,15.08824544,0.0001545,53.2187,313.4207,110.1636,249.9522,0.00031281,4.692e-05,0.0,0 STARLINK-3966,1 52552U 22051V   24036.90141871  .00004692  00000-0  31281-3 0  9994,2 52552  53.2187 313.4207 0001545 110.1636 249.9522 15.08824544 96290,6917.928,95.439,540.861,538.724,0.0
52552.0,STARLINK-3966,PAYLOAD,2024-02-06 00:48:48,15.08851426,0.0001544,53.2185,312.8262,93.6149,266.5019,2.3124e-05,8e-07,0.0,0 STARLINK-3966,1 52552U 22051V   24037.03389434  .00000080  00000-0  23124-4 0  9993,2 52552  53.2185 312.8262 0001544  93.6149 266.5019 15.08851426 96380,6917.845,95.437,540.779,538.642,0.0
52552.0,STARLINK-3966,PAYLOAD,2024-02-06 21:28:49,15.08843647,0.0001609,53.2184,308.9597,93.5545,266.5631,5.7297e-05,6.24e-06,0.0,0 STARLINK-3966,1 52552U 22051V   24037.89501630  .00000624  00000-0  57297-4 0  9993,2 52552  53.2184 308.9597 0001609  93.5545 266.5631 15.08843647 96440,6917.869,95.437,540.847,538.621,0.0
52552.0,STARLINK-3966,PAYLOAD,2024-02-07 03:50:21,15.08848493,0.0001468,53.2181,307.7661,109.618,250.4971,3.6576e-05,2.94e-06,0.0,0 STARLINK-3966,1 52552U 22051V   24038.15997111  .00000294  00000-0  36576-4 0  9996,2 52552  53.2181 307.7661 0001468 109.6180 250.4971 15.08848493 96558,6917.854,95.437,540.735,538.704,0.0
52552.0,STARLINK-3966,PAYLOAD,2024-02-07 21:19:37,15.08837506,0.0001938,53.2178,304.4887,122.5715,237.5465,-0.00012031,-2.202e-05,0.0,0 STARLINK-3966,1 52552U 22051V   24038.88862502 -.00002202  00000-0 -12031-3 0  9993,2 52552  53.2178 304.4887 0001938 122.5715 237.5465 15.08837506 96599,6917.888,95.438,541.094,538.412,0.0
52552.0,STARLINK-3966,PAYLOAD,2024-02-08 03:41:09,15.08840608,0.0001274,53.2173,303.3076,97.2355,262.8782,-5.2724e-05,-1.127e-05,0.0,0 STARLINK-3966,1 52552U 22051V   24039.15358235 -.00001127  00000-0 -52724-4 0  9996,2 52552  53.2173 303.3076 0001274  97.2355 262.8782 15.08840608 96706,6917.879,95.438,540.625,538.862,0.0
52552.0,STARLINK-3966,PAYLOAD,2024-02-08 22:45:47,15.08838674,0.0001255,53.2174,299.7401,91.1938,268.9198,-2.3946e-05,-6.69e-06,0.0,0 STARLINK-3966,1 52552U 22051V   24039.94846787 -.00000669  00000-0 -23946-4 0  9991,2 52552  53.2174 299.7401 0001255  91.1938 268.9198 15.08838674 96759,6917.884,95.438,540.618,538.881,0.0
52552.0,STARLINK-3966,PAYLOAD,2024-02-09 03:31:56,15.08843647,0.0001245,53.2172,298.8466,89.3549,270.7586,4.2865e-05,3.94e-06,0.0,0 STARLINK-3966,1 52552U 22051V   24040.14718312  .00000394  00000-0  42865-4 0  9991,2 52552  53.2172 298.8466 0001245  89.3549 270.7586 15.08843647 96785,6917.869,95.437,540.596,538.873,0.0
52552.0,STARLINK-3966,PAYLOAD,2024-02-09 16:15:02,15.08828368,0.0001823,53.2178,296.4662,125.3571,234.7591,0.00011876,1.602e-05,0.0,0 STARLINK-3966,1 52552U 22051V   24040.67711249  .00001602  00000-0  11876-3 0  9991,2 52552  53.2178 296.4662 0001823 125.3571 234.7591 15.08828368 96937,6917.916,95.438,541.042,538.52,0.0
52552.0,STARLINK-3966,PAYLOAD,2024-02-10 01:47:21,15.08837674,0.0001458,53.218,294.685,90.8878,269.2281,8.7215e-05,1.1e-05,0.0,0 STARLINK-3966,1 52552U 22051V   24041.07455153  .00001100  00000-0  87215-4 0  9999,2 52552  53.2180 294.6850 0001458  90.8878 269.2281 15.08837674 96927,6917.887,95.438,540.761,538.744,0.0
52552.0,STARLINK-3966,PAYLOAD,2024-02-10 22:27:21,15.08846581,0.0001495,53.2181,290.8195,99.4655,260.6506,6.5237e-05,7.51e-06,0.0,0 STARLINK-3966,1 52552U 22051V   24041.93566947  .00000751  00000-0  65237-4 0  9999,2 52552  53.2181 290.8195 0001495  99.4655 260.6506 15.08846581 97054,6917.86,95.437,540.759,538.691,0.0
52552.0,STARLINK-3966,PAYLOAD,2024-02-11 01:38:07,15.0885134,0.0001445,53.2182,290.2239,96.3159,263.7997,0.0001261,1.72e-05,0.0,0 STARLINK-3966,1 52552U 22051V   24042.06814488  .00001720  00000-0  12610-3 0  9993,2 52552  53.2182 290.2239 0001445  96.3159 263.7997 15.08851340 97145,6917.846,95.437,540.71,538.711,0.0
52552.0,STARLINK-3966,PAYLOAD,2024-02-11 22:18:08,15.08845167,0.0001485,53.2176,286.3579,83.5467,276.5694,9.2268e-05,1.181e-05,0.0,0 STARLINK-3966,1 52552U 22051V   24042.92926802  .00001181  00000-0  92268-4 0  9991,2 52552  53.2176 286.3579 0001485  83.5467 276.5694 15.08845167 97208,6917.865,95.437,540.757,538.702,0.0
52552.0,STARLINK-3966,PAYLOAD,2024-02-11 23:53:31,15.08850311,0.0001653,53.2184,286.061,78.2438,281.874,0.00013794,1.909e-05,0.0,0 STARLINK-3966,1 52552U 22051V   24042.99550394  .00001909  00000-0  13794-3 0  9991,2 52552  53.2184 286.0610 0001653  78.2438 281.8740 15.08850311 97282,6917.849,95.437,540.857,538.57,0.0
52552.0,STARLINK-3966,PAYLOAD,2024-02-12 22:08:55,15.08843999,0.0001648,53.2183,281.8934,74.0917,286.0256,-2.9595e-06,-3.35e-06,0.0,0 STARLINK-3966,1 52552U 22051V   24043.92287020 -.00000335  00000-0 -29595-5 0  9990,2 52552  53.2183 281.8934 0001648  74.0917 286.0256 15.08843999 97354,6917.868,95.437,540.873,538.593,0.0
52552.0,STARLINK-3966,PAYLOAD,2024-02-13 09:16:37,15.088413,0.0001323,53.2169,279.8164,110.2361,249.8773,1.0863e-05,-1.15e-06,0.0,0 STARLINK-3966,1 52552U 22051V   24044.38654936 -.00000115  00000-0  10863-4 0  9997,2 52552  53.2169 279.8164 0001323 110.2361 249.8773 15.08841300 97429,6917.876,95.437,540.657,538.826,0.0
52552.0,STARLINK-3966,PAYLOAD,2024-02-13 21:59:42,15.088479,0.0001418,53.2171,277.4377,99.9882,260.127,-2.5682e-05,-6.97e-06,0.0,0 STARLINK-3966,1 52552U 22051V   24044.91646789 -.00000697  00000-0 -25682-4 0  9994,2 52552  53.2171 277.4377 0001418  99.9882 260.1270 15.08847900 97507,6917.856,95.437,540.702,538.74,0.0
52552.0,STARLINK-3966,PAYLOAD,2024-02-14 01:10:29,15.08838438,0.0001206,53.2171,276.8418,109.468,250.6443,0.00016955,2.411e-05,0.0,0 STARLINK-3966,1 52552U 22051V   24045.04894778  .00002411  00000-0  16955-3 0  9998,2 52552  53.2171 276.8418 0001206 109.4680 250.6443 15.08838438 97595,6917.885,95.438,540.584,538.916,0.0
52552.0,STARLINK-3966,PAYLOAD,2024-02-14 21:50:29,15.08850131,0.000143,53.2171,272.9761,101.1822,258.9331,-3.0963e-05,-7.81e-06,0.0,0 STARLINK-3966,1 52552U 22051V   24045.91006637 -.00000781  00000-0 -30963-4 0  9999,2 52552  53.2171 272.9761 0001430 101.1822 258.9331 15.08850131 97657,6917.849,95.437,540.704,538.725,0.0
52552.0,STARLINK-3966,PAYLOAD,2024-02-15 01:01:16,15.08841012,0.0001447,53.2166,272.3802,103.2613,256.8541,0.00012381,1.683e-05,0.0,0 STARLINK-3966,1 52552U 22051V   24046.04254734  .00001683  00000-0  12381-3 0  9990,2 52552  53.2166 272.3802 0001447 103.2613 256.8541 15.08841012 97670,6917.877,95.437,540.743,538.741,0.0
52552.0,STARLINK-3966,PAYLOAD,2024-02-15 20:05:54,15.0883233,0.0001488,53.2169,268.813,105.9185,254.1971,4.0058e-05,3.49e-06,0.0,0 STARLINK-3966,1 52552U 22051V   24046.83743842  .00000349  00000-0  40058-4 0  9991,2 52552  53.2169 268.8130 0001488 105.9185 254.1971 15.08832330 97867,6917.904,95.438,540.798,538.739,0.0
52552.0,STARLINK-3966,PAYLOAD,2024-02-15 21:41:17,15.08836597,0.0001255,53.2158,268.5175,88.5255,271.5881,-7.5606e-06,-4.08e-06,0.0,0 STARLINK-3966,1 52552U 22051V   24046.90367729 -.00000408  00000-0 -75606-5 0  9991,2 52552  53.2158 268.5175 0001255  88.5255 271.5881 15.08836597 97803,6917.891,95.438,540.624,538.888,0.0
52552.0,STARLINK-3966,PAYLOAD,2024-02-16 07:13:36,15.08839996,0.0001286,53.2164,266.7314,87.5213,272.5927,4.5961e-05,4.44e-06,0.0,0 STARLINK-3966,1 52552U 22051V   24047.30111472  .00000444  00000-0  45961-4 0  9996,2 52552  53.2164 266.7314 0001286  87.5213 272.5927 15.08839996 97934,6917.88,95.438,540.635,538.856,0.0
52552.0,STARLINK-3966,PAYLOAD,2024-02-16 13:35:08,15.08838502,0.0001265,53.2161,265.5435,92.6955,267.4182,7.4869e-05,9.04e-06,0.0,0 STARLINK-3966,1 52552U 22051V   24047.56607520  .00000904  00000-0  74869-4 0  9998,2 52552  53.2161 265.5435 0001265  92.6955 267.4182 15.08838502 97904,6917.885,95.438,540.625,538.875,0.0
52552.0,STARLINK-3966,PAYLOAD,2024-02-16 21:32:04,15.08848825,0.0001319,53.2155,264.0574,93.1005,267.0138,0.00014796,2.068e-05,0.0,0 STARLINK-3966,1 52552U 22051V   24047.89726922  .00002068  00000-0  14796-3 0  9997,2 52552  53.2155 264.0574 0001319  93.1005 267.0138 15.08848825 97958,6917.853,95.437,540.631,538.806,0.0
52552.0,STARLINK-3966,PAYLOAD,2024-02-16 23:07:27,15.08850414,0.0001319,53.2156,263.76,92.8273,267.287,0.00017909,2.564e-05,0.0,0 STARLINK-3966,1 52552U 22051V   24047.96350842  .00002564  00000-0  17909-3 0  9999,2 52552  53.2156 263.7600 0001319  92.8273 267.2870 15.08850414 98030,6917.849,95.437,540.626,538.801,0.0
